[{"OBJECT_NAME":"STARLINK-3135","OBJECT_ID":"2021-104S","EPOCH":"2026-03-09T18:08:46.059360","MEAN_MOTION":15.08839991,"ECCENTRICITY":0.00015117,"INCLINATION":53.2173,"RA_OF_ASC_NODE":228.823,"ARG_OF_PERICENTER":94.7788,"MEAN_ANOMALY":265.3377,"EPHEMERIS_TYPE":0,"CLASSIFICATION_TYPE":"U","NORAD_CAT_ID":49424,"ELEMENT_SET_NO":999,"REV_AT_EPOCH":23863,"BSTAR":-7.42004e-7,"MEAN_MOTION_DOT":-3.0e-6,"MEAN_MOTION_DDOT":0},{"OBJECT_NAME":"FENGYUN 1C DEB","OBJECT_ID":"1999-025DVA","EPOCH":"2026-03-08T04:27:49.439232","MEAN_MOTION":15.15496966,"ECCENTRICITY":0.00338373,"INCLINATION":98.8203,"RA_OF_ASC_NODE":206.4896,"ARG_OF_PERICENTER":4.2711,"MEAN_ANOMALY":355.88,"EPHEMERIS_TYPE":0,"CLASSIFICATION_TYPE":"U","NORAD_CAT_ID":36225,"ELEMENT_SET_NO":999,"REV_AT_EPOCH":68062,"BSTAR":0.0036229129,"MEAN_MOTION_DOT":0.00070122,"MEAN_MOTION_DDOT":0}]
